YAOGAN-43 01D           
1 60461U 24148D   26068.43560480  .00010676  00000+0  37766-3 0  9999
2 60461  35.0010  61.7102 0002556 326.2473  33.8080 15.28369377 87008
STARLINK-35878          
1 67178U 25303R   26068.02339645  .00033645  00000+0  12258-2 0  9996
2 67178  43.0020 314.4400 0002915 246.4167 113.6378 15.27598188 12638
