[{"OBJECT_NAME":"YAOGAN-43 01D","OBJECT_ID":"2024-148D","EPOCH":"2026-03-09T10:27:16.254720","MEAN_MOTION":15.28369377,"ECCENTRICITY":0.00025569,"INCLINATION":35.001,"RA_OF_ASC_NODE":61.7102,"ARG_OF_PERICENTER":326.2473,"MEAN_ANOMALY":33.808,"EPHEMERIS_TYPE":0,"CLASSIFICATION_TYPE":"U","NORAD_CAT_ID":60461,"ELEMENT_SET_NO":999,"REV_AT_EPOCH":8700,"BSTAR":0.00037765912,"MEAN_MOTION_DOT":0.00010676,"MEAN_MOTION_DDOT":0},{"OBJECT_NAME":"STARLINK-35878","OBJECT_ID":"2025-303R","EPOCH":"2026-03-09T00:33:41.453280","MEAN_MOTION":15.27598188,"ECCENTRICITY":0.00029159,"INCLINATION":43.002,"RA_OF_ASC_NODE":314.44,"ARG_OF_PERICENTER":246.4167,"MEAN_ANOMALY":113.6378,"EPHEMERIS_TYPE":0,"CLASSIFICATION_TYPE":"U","NORAD_CAT_ID":67178,"ELEMENT_SET_NO":999,"REV_AT_EPOCH":1263,"BSTAR":0.0012258242,"MEAN_MOTION_DOT":0.00033645,"MEAN_MOTION_DDOT":0}]
